[{"OBJECT_NAME":"ONEWEB-0388","OBJECT_ID":"2021-090AM","EPOCH":"2026-04-24T02:57:08.069184","MEAN_MOTION":13.1972346,"ECCENTRICITY":0.00019,"INCLINATION":87.9155,"RA_OF_ASC_NODE":315.7525,"ARG_OF_PERICENTER":91.7589,"MEAN_ANOMALY":268.3762,"EPHEMERIS_TYPE":0,"CLASSIFICATION_TYPE":"U","NORAD_CAT_ID":49314,"ELEMENT_SET_NO":999,"REV_AT_EPOCH":21928,"BSTAR":4.4279e-05,"MEAN_MOTION_DOT":3.1e-07,"MEAN_MOTION_DDOT":0.0},{"OBJECT_NAME":"ONEWEB-0389","OBJECT_ID":"2021-132A","EPOCH":"2026-04-24T04:59:39.926400","MEAN_MOTION":13.17648071,"ECCENTRICITY":0.0001681,"INCLINATION":87.9194,"RA_OF_ASC_NODE":16.5916,"ARG_OF_PERICENTER":87.8939,"MEAN_ANOMALY":272.2385,"EPHEMERIS_TYPE":0,"CLASSIFICATION_TYPE":"U","NORAD_CAT_ID":50469,"ELEMENT_SET_NO":999,"REV_AT_EPOCH":21097,"BSTAR":-0.00012285,"MEAN_MOTION_DOT":-3.5e-07,"MEAN_MOTION_DDOT":0.0},{"OBJECT_NAME":"ONEWEB-0390","OBJECT_ID":"2021-132B","EPOCH":"2026-04-24T05:02:04.814016","MEAN_MOTION":13.17648066,"ECCENTRICITY":0.000163,"INCLINATION":87.9187,"RA_OF_ASC_NODE":16.5927,"ARG_OF_PERICENTER":73.165,"MEAN_ANOMALY":286.9661,"EPHEMERIS_TYPE":0,"CLASSIFICATION_TYPE":"U","NORAD_CAT_ID":50470,"ELEMENT_SET_NO":999,"REV_AT_EPOCH":21097,"BSTAR":-0.00021789000000000002,"MEAN_MOTION_DOT":-7.2e-07,"MEAN_MOTION_DDOT":0.0},{"OBJECT_NAME":"ONEWEB-0391","OBJECT_ID":"2021-132C","EPOCH":"2026-04-24T05:04:31.281888","MEAN_MOTION":13.17648356,"ECCENTRICITY":0.0001215,"INCLINATION":87.9185,"RA_OF_ASC_NODE":16.6023,"ARG_OF_PERICENTER":102.7229,"MEAN_ANOMALY":257.4039,"EPHEMERIS_TYPE":0,"CLASSIFICATION_TYPE":"U","NORAD_CAT_ID":50471,"ELEMENT_SET_NO":999,"REV_AT_EPOCH":21097,"BSTAR":1.2734000000000002e-05,"MEAN_MOTION_DOT":1.8e-07,"MEAN_MOTION_DDOT":0.0},{"OBJECT_NAME":"ONEWEB-0392","OBJECT_ID":"2021-132D","EPOCH":"2026-04-24T03:58:55.221024","MEAN_MOTION":13.17648975,"ECCENTRICITY":0.0001573,"INCLINATION":87.919,"RA_OF_ASC_NODE":16.576,"ARG_OF_PERICENTER":91.8722,"MEAN_ANOMALY":268.259,"EPHEMERIS_TYPE":0,"CLASSIFICATION_TYPE":"U","NORAD_CAT_ID":50472,"ELEMENT_SET_NO":999,"REV_AT_EPOCH":21100,"BSTAR":5.6133999999999995e-05,"MEAN_MOTION_DOT":3.5e-07,"MEAN_MOTION_DDOT":0.0},{"OBJECT_NAME":"ONEWEB-0393","OBJECT_ID":"2021-132E","EPOCH":"2026-04-24T05:13:02.493408","MEAN_MOTION":13.17651692,"ECCENTRICITY":0.0001693,"INCLINATION":87.9178,"RA_OF_ASC_NODE":16.5869,"ARG_OF_PERICENTER":84.1165,"MEAN_ANOMALY":276.0159,"EPHEMERIS_TYPE":0,"CLASSIFICATION_TYPE":"U","NORAD_CAT_ID":50473,"ELEMENT_SET_NO":999,"REV_AT_EPOCH":21100,"BSTAR":0.00017404,"MEAN_MOTION_DOT":8e-07,"MEAN_MOTION_DDOT":0.0},{"OBJECT_NAME":"ONEWEB-0394","OBJECT_ID":"2021-132F","EPOCH":"2026-04-24T03:35:34.751328","MEAN_MOTION":13.18654839,"ECCENTRICITY":0.0001588,"INCLINATION":87.9264,"RA_OF_ASC_NODE":346.1905,"ARG_OF_PERICENTER":89.7429,"MEAN_ANOMALY":270.3885,"EPHEMERIS_TYPE":0,"CLASSIFICATION_TYPE":"U","NORAD_CAT_ID":50474,"ELEMENT_SET_NO":999,"REV_AT_EPOCH":21447,"BSTAR":-0.0084298,"MEAN_MOTION_DOT":-3.308e-05,"MEAN_MOTION_DDOT":0.0},{"OBJECT_NAME":"ONEWEB-0395","OBJECT_ID":"2021-132G","EPOCH":"2026-04-24T05:24:19.261152","MEAN_MOTION":13.11418216,"ECCENTRICITY":0.0001619,"INCLINATION":87.8915,"RA_OF_ASC_NODE":31.7978,"ARG_OF_PERICENTER":78.9981,"MEAN_ANOMALY":281.1329,"EPHEMERIS_TYPE":0,"CLASSIFICATION_TYPE":"U","NORAD_CAT_ID":50475,"ELEMENT_SET_NO":999,"REV_AT_EPOCH":20864,"BSTAR":0.0014668,"MEAN_MOTION_DOT":5.33e-06,"MEAN_MOTION_DDOT":0.0},{"OBJECT_NAME":"ONEWEB-0396","OBJECT_ID":"2021-132H","EPOCH":"2026-04-24T03:26:00.902400","MEAN_MOTION":13.18679429,"ECCENTRICITY":0.0001714,"INCLINATION":87.9207,"RA_OF_ASC_NODE":346.2026,"ARG_OF_PERICENTER":87.0731,"MEAN_ANOMALY":273.0597,"EPHEMERIS_TYPE":0,"CLASSIFICATION_TYPE":"U","NORAD_CAT_ID":50476,"ELEMENT_SET_NO":999,"REV_AT_EPOCH":21451,"BSTAR":-0.0016728000000000001,"MEAN_MOTION_DOT":-6.46e-06,"MEAN_MOTION_DDOT":0.0},{"OBJECT_NAME":"ONEWEB-0397","OBJECT_ID":"2021-132J","EPOCH":"2026-04-24T03:47:30.863040","MEAN_MOTION":13.18565869,"ECCENTRICITY":0.0004132,"INCLINATION":87.9208,"RA_OF_ASC_NODE":346.1996,"ARG_OF_PERICENTER":84.6302,"MEAN_ANOMALY":275.5301,"EPHEMERIS_TYPE":0,"CLASSIFICATION_TYPE":"U","NORAD_CAT_ID":50477,"ELEMENT_SET_NO":999,"REV_AT_EPOCH":21449,"BSTAR":0.030857000000000002,"MEAN_MOTION_DOT":0.00012173,"MEAN_MOTION_DDOT":0.0},{"OBJECT_NAME":"ONEWEB-0398","OBJECT_ID":"2021-132K","EPOCH":"2026-04-24T04:37:55.499808","MEAN_MOTION":13.11420687,"ECCENTRICITY":0.0001621,"INCLINATION":87.893,"RA_OF_ASC_NODE":31.7892,"ARG_OF_PERICENTER":71.0669,"MEAN_ANOMALY":289.0635,"EPHEMERIS_TYPE":0,"CLASSIFICATION_TYPE":"U","NORAD_CAT_ID":50478,"ELEMENT_SET_NO":999,"REV_AT_EPOCH":20853,"BSTAR":-0.0006736,"MEAN_MOTION_DOT":-2.26e-06,"MEAN_MOTION_DDOT":0.0},{"OBJECT_NAME":"ONEWEB-0399","OBJECT_ID":"2021-132L","EPOCH":"2026-04-24T04:18:23.588352","MEAN_MOTION":13.11416501,"ECCENTRICITY":0.0001833,"INCLINATION":87.8927,"RA_OF_ASC_NODE":31.8014,"ARG_OF_PERICENTER":94.4001,"MEAN_ANOMALY":265.7336,"EPHEMERIS_TYPE":0,"CLASSIFICATION_TYPE":"U","NORAD_CAT_ID":50479,"ELEMENT_SET_NO":999,"REV_AT_EPOCH":20852,"BSTAR":-0.0014868000000000001,"MEAN_MOTION_DOT":-5.14e-06,"MEAN_MOTION_DDOT":0.0},{"OBJECT_NAME":"ONEWEB-0400","OBJECT_ID":"2021-132M","EPOCH":"2026-04-24T03:16:30.404928","MEAN_MOTION":13.18685274,"ECCENTRICITY":0.00016,"INCLINATION":87.9207,"RA_OF_ASC_NODE":346.194,"ARG_OF_PERICENTER":78.0905,"MEAN_ANOMALY":282.0407,"EPHEMERIS_TYPE":0,"CLASSIFICATION_TYPE":"U","NORAD_CAT_ID":50480,"ELEMENT_SET_NO":999,"REV_AT_EPOCH":21448,"BSTAR":0.00016916,"MEAN_MOTION_DOT":8e-07,"MEAN_MOTION_DDOT":0.0},{"OBJECT_NAME":"ONEWEB-0401","OBJECT_ID":"2021-132N","EPOCH":"2026-04-24T04:20:52.661184","MEAN_MOTION":13.18584665,"ECCENTRICITY":0.0002612,"INCLINATION":87.9207,"RA_OF_ASC_NODE":346.1819,"ARG_OF_PERICENTER":82.7081,"MEAN_ANOMALY":277.4348,"EPHEMERIS_TYPE":0,"CLASSIFICATION_TYPE":"U","NORAD_CAT_ID":50481,"ELEMENT_SET_NO":999,"REV_AT_EPOCH":21449,"BSTAR":-0.013297000000000002,"MEAN_MOTION_DOT":-5.219e-05,"MEAN_MOTION_DDOT":0.0},{"OBJECT_NAME":"ONEWEB-0402","OBJECT_ID":"2021-132P","EPOCH":"2026-04-24T03:28:24.208896","MEAN_MOTION":13.18676937,"ECCENTRICITY":0.0002205,"INCLINATION":87.9208,"RA_OF_ASC_NODE":346.1794,"ARG_OF_PERICENTER":86.0868,"MEAN_ANOMALY":274.0516,"EPHEMERIS_TYPE":0,"CLASSIFICATION_TYPE":"U","NORAD_CAT_ID":50482,"ELEMENT_SET_NO":999,"REV_AT_EPOCH":21451,"BSTAR":-0.0021161,"MEAN_MOTION_DOT":-8.21e-06,"MEAN_MOTION_DDOT":0.0},{"OBJECT_NAME":"ONEWEB-0403","OBJECT_ID":"2021-132Q","EPOCH":"2026-04-24T04:04:10.840224","MEAN_MOTION":13.18622329,"ECCENTRICITY":0.0001621,"INCLINATION":87.9208,"RA_OF_ASC_NODE":346.198,"ARG_OF_PERICENTER":82.9192,"MEAN_ANOMALY":277.2124,"EPHEMERIS_TYPE":0,"CLASSIFICATION_TYPE":"U","NORAD_CAT_ID":50483,"ELEMENT_SET_NO":999,"REV_AT_EPOCH":21447,"BSTAR":-0.015376,"MEAN_MOTION_DOT":-6.039e-05,"MEAN_MOTION_DDOT":0.0}]