ONEWEB-0388             
1 49314U 21090AM  26114.12301006  .00000031  00000+0  44279-4 0  9993
2 49314  87.9155 315.7525 0001900  91.7589 268.3762 13.19723460219287
ONEWEB-0389             
1 50469U 21132A   26114.20810100 -.00000035  00000+0 -12285-3 0  9999
2 50469  87.9194  16.5916 0001681  87.8939 272.2385 13.17648071210978
ONEWEB-0390             
1 50470U 21132B   26114.20977794 -.00000072  00000+0 -21789-3 0  9994
2 50470  87.9187  16.5927 0001630  73.1650 286.9661 13.17648066210979
ONEWEB-0391             
1 50471U 21132C   26114.21147317  .00000018  00000+0  12734-4 0  9995
2 50471  87.9185  16.6023 0001215 102.7229 257.4039 13.17648356210970
ONEWEB-0392             
1 50472U 21132D   26114.16591691  .00000035  00000+0  56134-4 0  9999
2 50472  87.9190  16.5760 0001573  91.8722 268.2590 13.17648975211001
ONEWEB-0393             
1 50473U 21132E   26114.21738997  .00000080  00000+0  17404-3 0  9994
2 50473  87.9178  16.5869 0001693  84.1165 276.0159 13.17651692211005
ONEWEB-0394             
1 50474U 21132F   26114.14970777 -.00003308  00000+0 -84298-2 0  9993
2 50474  87.9264 346.1905 0001588  89.7429 270.3885 13.18654839214476
ONEWEB-0395             
1 50475U 21132G   26114.22522293  .00000533  00000+0  14668-2 0  9998
2 50475  87.8915  31.7978 0001619  78.9981 281.1329 13.11418216208649
ONEWEB-0396             
1 50476U 21132H   26114.14306600 -.00000646  00000+0 -16728-2 0  9998
2 50476  87.9207 346.2026 0001714  87.0731 273.0597 13.18679429214515
ONEWEB-0397             
1 50477U 21132J   26114.15799610  .00012173  00000+0  30857-1 0  9991
2 50477  87.9208 346.1996 0004132  84.6302 275.5301 13.18565869214495
ONEWEB-0398             
1 50478U 21132K   26114.19300347 -.00000226  00000+0 -67360-3 0  9990
2 50478  87.8930  31.7892 0001621  71.0669 289.0635 13.11420687208534
ONEWEB-0399             
1 50479U 21132L   26114.17943968 -.00000514  00000+0 -14868-2 0  9995
2 50479  87.8927  31.8014 0001833  94.4001 265.7336 13.11416501208520
ONEWEB-0400             
1 50480U 21132M   26114.13646302  .00000080  00000+0  16916-3 0  9998
2 50480  87.9207 346.1940 0001600  78.0905 282.0407 13.18685274214482
ONEWEB-0401             
1 50481U 21132N   26114.18116506 -.00005219  00000+0 -13297-1 0  9990
2 50481  87.9207 346.1819 0002612  82.7081 277.4348 13.18584665214494
ONEWEB-0402             
1 50482U 21132P   26114.14472464 -.00000821  00000+0 -21161-2 0  9999
2 50482  87.9208 346.1794 0002205  86.0868 274.0516 13.18676937214513
ONEWEB-0403             
1 50483U 21132Q   26114.16956991 -.00006039  00000+0 -15376-1 0  9991
2 50483  87.9208 346.1980 0001621  82.9192 277.2124 13.18622329214478
